[{"CCSDS_OMM_VERS":"2.0","COMMENT":"GENERATED VIA SPACE-TRACK.ORG API","CREATION_DATE":"2020-05-02T17:35:37","ORIGINATOR":"18 SPCS","OBJECT_NAME":"TBA - TO BE ASSIGNED","OBJECT_ID":null,"CENTER_NAME":"EARTH","REF_FRAME":"TEME","TIME_SYSTEM":"UTC","MEAN_ELEMENT_THEORY":"SGP4","EPOCH":"2020-05-02T12:06:50.540832","MEAN_MOTION":"15.80910640","ECCENTRICITY":"0.00173030","INCLINATION":"98.4487","RA_OF_ASC_NODE":"316.0147","ARG_OF_PERICENTER":"298.3366","MEAN_ANOMALY":"61.6153","EPHEMERIS_TYPE":"0","CLASSIFICATION_TYPE":"U","NORAD_CAT_ID":"81361","ELEMENT_SET_NO":"999","REV_AT_EPOCH":"48342","BSTAR":"0.01511800000000","MEAN_MOTION_DOT":"0.03488815","MEAN_MOTION_DDOT":"0.0000000000000","SEMIMAJOR_AXIS":"6706.001","PERIOD":"91.086","APOAPSIS":"339.469","PERIAPSIS":"316.262","OBJECT_TYPE":"TBA","RCS_SIZE":null,"COUNTRY_CODE":null,"LAUNCH_DATE":null,"SITE":null,"DECAY_DATE":null,"FILE":"2742958","GP_ID":"153240623","TLE_LINE0":"0 TBA - TO BE ASSIGNED","TLE_LINE1":"1 81361U          20123.50475163 +.03488815 +00000+0 +15118-1 0  9991","TLE_LINE2":"2 81361  98.4487 316.0147 0017303 298.3366  61.6153 15.80910640483421"},{"CCSDS_OMM_VERS":"2.0","COMMENT":"GENERATED VIA SPACE-TRACK.ORG API","CREATION_DATE":"2021-11-02T18:24:01","ORIGINATOR":"18 SPCS","OBJECT_NAME":"TBA - TO BE ASSIGNED","OBJECT_ID":"","CENTER_NAME":"EARTH","REF_FRAME":"TEME","TIME_SYSTEM":"UTC","MEAN_ELEMENT_THEORY":"SGP4","EPOCH":"2021-11-01T20:47:27.444768","MEAN_MOTION":"13.39017152","ECCENTRICITY":"0.07351900","INCLINATION":"65.8880","RA_OF_ASC_NODE":"6.2918","ARG_OF_PERICENTER":"80.8906","MEAN_ANOMALY":"287.4512","EPHEMERIS_TYPE":"0","CLASSIFICATION_TYPE":"U","NORAD_CAT_ID":"81366","ELEMENT_SET_NO":"999","REV_AT_EPOCH":"86474","BSTAR":"0.00007951800000","MEAN_MOTION_DOT":"0.00000125","MEAN_MOTION_DDOT":"0.0000000000000","SEMIMAJOR_AXIS":"7491.080","PERIOD":"107.542","APOAPSIS":"1663.681","PERIAPSIS":"562.208","OBJECT_TYPE":"TBA","RCS_SIZE":null,"COUNTRY_CODE":null,"LAUNCH_DATE":null,"SITE":null,"DECAY_DATE":null,"FILE":"3197730","GP_ID":"188716634","TLE_LINE0":"0 TBA - TO BE ASSIGNED","TLE_LINE1":"1 81366U          21305.86628987 +.00000125 +00000+0 +79518-4 0  9990","TLE_LINE2":"2 81366  65.8880   6.2918 0735190  80.8906 287.4512 13.39017152864743"},{"CCSDS_OMM_VERS":"2.0","COMMENT":"GENERATED VIA SPACE-TRACK.ORG API","CREATION_DATE":"2021-11-03T18:02:46","ORIGINATOR":"18 SPCS","OBJECT_NAME":"TBA - TO BE ASSIGNED","OBJECT_ID":"","CENTER_NAME":"EARTH","REF_FRAME":"TEME","TIME_SYSTEM":"UTC","MEAN_ELEMENT_THEORY":"SGP4","EPOCH":"2021-11-03T08:44:04.180128","MEAN_MOTION":"14.57845152","ECCENTRICITY":"0.00870200","INCLINATION":"98.8653","RA_OF_ASC_NODE":"272.2737","ARG_OF_PERICENTER":"295.9795","MEAN_ANOMALY":"63.2457","EPHEMERIS_TYPE":"0","CLASSIFICATION_TYPE":"U","NORAD_CAT_ID":"81371","ELEMENT_SET_NO":"999","REV_AT_EPOCH":"42251","BSTAR":"0.00032871000000","MEAN_MOTION_DOT":"0.00001527","MEAN_MOTION_DDOT":"0.0000000000000","SEMIMAJOR_AXIS":"7078.277","PERIOD":"98.776","APOAPSIS":"761.738","PERIAPSIS":"638.547","OBJECT_TYPE":"TBA","RCS_SIZE":null,"COUNTRY_CODE":null,"LAUNCH_DATE":null,"SITE":null,"DECAY_DATE":null,"FILE":"3199757","GP_ID":"188806217","TLE_LINE0":"0 TBA - TO BE ASSIGNED","TLE_LINE1":"1 81371U          21307.36393727 +.00001527 +00000+0 +32871-3 0  9991","TLE_LINE2":"2 81371  98.8653 272.2737 0087020 295.9795  63.2457 14.57845152422517"},{"CCSDS_OMM_VERS":"2.0","COMMENT":"GENERATED VIA SPACE-TRACK.ORG API","CREATION_DATE":"2021-11-03T18:02:46","ORIGINATOR":"18 SPCS","OBJECT_NAME":"TBA - TO BE ASSIGNED","OBJECT_ID":"","CENTER_NAME":"EARTH","REF_FRAME":"TEME","TIME_SYSTEM":"UTC","MEAN_ELEMENT_THEORY":"SGP4","EPOCH":"2021-11-02T20:26:23.776512","MEAN_MOTION":"14.36402072","ECCENTRICITY":"0.00524260","INCLINATION":"65.7299","RA_OF_ASC_NODE":"117.2689","ARG_OF_PERICENTER":"228.9168","MEAN_ANOMALY":"130.7391","EPHEMERIS_TYPE":"0","CLASSIFICATION_TYPE":"U","NORAD_CAT_ID":"81374","ELEMENT_SET_NO":"999","REV_AT_EPOCH":"36763","BSTAR":"0.00162740000000","MEAN_MOTION_DOT":"0.00004760","MEAN_MOTION_DDOT":"0.0000000000000","SEMIMAJOR_AXIS":"7148.548","PERIOD":"100.250","APOAPSIS":"807.890","PERIAPSIS":"732.936","OBJECT_TYPE":"TBA","RCS_SIZE":null,"COUNTRY_CODE":null,"LAUNCH_DATE":null,"SITE":null,"DECAY_DATE":null,"FILE":"3199757","GP_ID":"188806230","TLE_LINE0":"0 TBA - TO BE ASSIGNED","TLE_LINE1":"1 81374U          21306.85166408 +.00004760 +00000+0 +16274-2 0  9991","TLE_LINE2":"2 81374  65.7299 117.2689 0052426 228.9168 130.7391 14.36402072367630"},{"CCSDS_OMM_VERS":"2.0","COMMENT":"GENERATED VIA SPACE-TRACK.ORG API","CREATION_DATE":"2021-11-04T17:50:53","ORIGINATOR":"18 SPCS","OBJECT_NAME":"TBA - TO BE ASSIGNED","OBJECT_ID":"","CENTER_NAME":"EARTH","REF_FRAME":"TEME","TIME_SYSTEM":"UTC","MEAN_ELEMENT_THEORY":"SGP4","EPOCH":"2021-11-04T03:27:41.802048","MEAN_MOTION":"14.40032004","ECCENTRICITY":"0.00039760","INCLINATION":"99.8545","RA_OF_ASC_NODE":"187.7597","ARG_OF_PERICENTER":"43.5311","MEAN_ANOMALY":"316.6186","EPHEMERIS_TYPE":"0","CLASSIFICATION_TYPE":"U","NORAD_CAT_ID":"81380","ELEMENT_SET_NO":"999","REV_AT_EPOCH":"40190","BSTAR":"0.00215160000000","MEAN_MOTION_DOT":"0.00006733","MEAN_MOTION_DDOT":"0.0000000000000","SEMIMAJOR_AXIS":"7136.530","PERIOD":"99.998","APOAPSIS":"761.232","PERIAPSIS":"755.557","OBJECT_TYPE":"TBA","RCS_SIZE":null,"COUNTRY_CODE":null,"LAUNCH_DATE":null,"SITE":null,"DECAY_DATE":null,"FILE":"3200777","GP_ID":"188874142","TLE_LINE0":"0 TBA - TO BE ASSIGNED","TLE_LINE1":"1 81380U          21308.14423382 +.00006733 +00000+0 +21516-2 0  9996","TLE_LINE2":"2 81380  99.8545 187.7597 0003976  43.5311 316.6186 14.40032004401901"},{"CCSDS_OMM_VERS":"2.0","COMMENT":"GENERATED VIA SPACE-TRACK.ORG API","CREATION_DATE":"2021-10-31T18:06:35","ORIGINATOR":"18 SPCS","OBJECT_NAME":"TBA - TO BE ASSIGNED","OBJECT_ID":"","CENTER_NAME":"EARTH","REF_FRAME":"TEME","TIME_SYSTEM":"UTC","MEAN_ELEMENT_THEORY":"SGP4","EPOCH":"2021-10-31T06:33:28.032768","MEAN_MOTION":"14.16926526","ECCENTRICITY":"0.01264840","INCLINATION":"71.0559","RA_OF_ASC_NODE":"313.7666","ARG_OF_PERICENTER":"261.9397","MEAN_ANOMALY":"96.7360","EPHEMERIS_TYPE":"0","CLASSIFICATION_TYPE":"U","NORAD_CAT_ID":"81386","ELEMENT_SET_NO":"999","REV_AT_EPOCH":"41019","BSTAR":"0.00081759000000","MEAN_MOTION_DOT":"0.00001727","MEAN_MOTION_DDOT":"0.0000000000000","SEMIMAJOR_AXIS":"7213.903","PERIOD":"101.628","APOAPSIS":"927.012","PERIAPSIS":"744.523","OBJECT_TYPE":"TBA","RCS_SIZE":null,"COUNTRY_CODE":null,"LAUNCH_DATE":null,"SITE":null,"DECAY_DATE":null,"FILE":"3194430","GP_ID":"188550358","TLE_LINE0":"0 TBA - TO BE ASSIGNED","TLE_LINE1":"1 81386U          21304.27324112 +.00001727 +00000+0 +81759-3 0  9997","TLE_LINE2":"2 81386  71.0559 313.7666 0126484 261.9397  96.7360 14.16926526410197"},{"CCSDS_OMM_VERS":"2.0","COMMENT":"GENERATED VIA SPACE-TRACK.ORG API","CREATION_DATE":"2021-11-04T17:50:53","ORIGINATOR":"18 SPCS","OBJECT_NAME":"TBA - TO BE ASSIGNED","OBJECT_ID":"","CENTER_NAME":"EARTH","REF_FRAME":"TEME","TIME_SYSTEM":"UTC","MEAN_ELEMENT_THEORY":"SGP4","EPOCH":"2021-11-04T13:47:32.028000","MEAN_MOTION":"12.34360122","ECCENTRICITY":"0.01823520","INCLINATION":"103.1009","RA_OF_ASC_NODE":"76.2203","ARG_OF_PERICENTER":"242.7920","MEAN_ANOMALY":"115.4448","EPHEMERIS_TYPE":"0","CLASSIFICATION_TYPE":"U","NORAD_CAT_ID":"81390","ELEMENT_SET_NO":"999","REV_AT_EPOCH":"31499","BSTAR":"0.01233300000000","MEAN_MOTION_DOT":"0.00001570","MEAN_MOTION_DDOT":"0.0000000000000","SEMIMAJOR_AXIS":"7908.739","PERIOD":"116.660","APOAPSIS":"1674.822","PERIAPSIS":"1386.387","OBJECT_TYPE":"TBA","RCS_SIZE":null,"COUNTRY_CODE":null,"LAUNCH_DATE":null,"SITE":null,"DECAY_DATE":null,"FILE":"3200777","GP_ID":"188873979","TLE_LINE0":"0 TBA - TO BE ASSIGNED","TLE_LINE1":"1 81390U          21308.57467625 +.00001570 +00000+0 +12333-1 0  9992","TLE_LINE2":"2 81390 103.1009  76.2203 0182352 242.7920 115.4448 12.34360122314991"},{"CCSDS_OMM_VERS":"2.0","COMMENT":"GENERATED VIA SPACE-TRACK.ORG API","CREATION_DATE":"2021-11-01T19:35:20","ORIGINATOR":"18 SPCS","OBJECT_NAME":"TBA - TO BE ASSIGNED","OBJECT_ID":"","CENTER_NAME":"EARTH","REF_FRAME":"TEME","TIME_SYSTEM":"UTC","MEAN_ELEMENT_THEORY":"SGP4","EPOCH":"2021-10-31T21:56:41.261280","MEAN_MOTION":"14.22137131","ECCENTRICITY":"0.00157780","INCLINATION":"81.2096","RA_OF_ASC_NODE":"15.5969","ARG_OF_PERICENTER":"147.7276","MEAN_ANOMALY":"212.4870","EPHEMERIS_TYPE":"0","CLASSIFICATION_TYPE":"U","NORAD_CAT_ID":"81391","ELEMENT_SET_NO":"999","REV_AT_EPOCH":"36681","BSTAR":"0.00170190000000","MEAN_MOTION_DOT":"0.00003786","MEAN_MOTION_DDOT":"0.0000000000000","SEMIMAJOR_AXIS":"7196.271","PERIOD":"101.256","APOAPSIS":"829.491","PERIAPSIS":"806.782","OBJECT_TYPE":"TBA","RCS_SIZE":null,"COUNTRY_CODE":null,"LAUNCH_DATE":null,"SITE":null,"DECAY_DATE":null,"FILE":"3196300","GP_ID":"188638369","TLE_LINE0":"0 TBA - TO BE ASSIGNED","TLE_LINE1":"1 81391U          21304.91436645 +.00003786 +00000+0 +17019-2 0  9993","TLE_LINE2":"2 81391  81.2096  15.5969 0015778 147.7276 212.4870 14.22137131366810"}]